start=new Date('2022-05-04T00:00:00.000Z').valueOf();
sats=[{"OBJECT_TYPE":"PAYLOAD","FILE":"3427573","INCLINATION":"53.0550","DECAY_DATE":null,"GP_ID":"202632878","OBJECT_NAME":"STARLINK-1337","NORAD_CAT_ID":"45582","LAUNCH_DATE":"2020-04-22","PERIAPSIS":"546.066","REF_FRAME":"TEME","EPOCH":"2022-05-03T20:39:49.091904","MEAN_ANOMALY":"294.2386","PERIOD":"95.592","MEAN_MOTION":"15.06406403","OBJECT_ID":"2020-025BD","BSTAR":"0.00050669000000","TLE_LINE1":"1 45582U 20025BD  22123.86098486  .00007275  00000-0  50669-3 0  9992","RA_OF_ASC_NODE":"267.6251","CENTER_NAME":"EARTH","TLE_LINE2":"2 45582  53.0550 267.6251 0001629  65.8773 294.2386 15.06406403113612","APOAPSIS":"548.322","MEAN_ELEMENT_THEORY":"SGP4","REV_AT_EPOCH":"11361","ELEMENT_SET_NO":"999","MEAN_MOTION_DOT":"0.00007275","SEMIMAJOR_AXIS":"6925.329","SITE":"AFETR","EPHEMERIS_TYPE":"0","ECCENTRICITY":"0.00016290","COUNTRY_CODE":"US","MEAN_MOTION_DDOT":"0.0000000000000","CLASSIFICATION_TYPE":"U","ARG_OF_PERICENTER":"65.8773","RCS_SIZE":"LARGE","TIME_SYSTEM":"UTC"},{"TLE_LINE1":"1 45583U 20025BE  22123.84254776  .00002029  00000-0  15505-3 0  9999","BSTAR":"0.00015505000000","OBJECT_ID":"2020-025BE","MEAN_MOTION":"15.06401857","PERIOD":"95.592","REF_FRAME":"TEME","EPOCH":"2022-05-03T20:13:16.126464","MEAN_ANOMALY":"305.7952","LAUNCH_DATE":"2020-04-22","PERIAPSIS":"545.997","OBJECT_NAME":"STARLINK-1340","GP_ID":"202633129","NORAD_CAT_ID":"45583","DECAY_DATE":null,"INCLINATION":"53.0540","FILE":"3427573","OBJECT_TYPE":"PAYLOAD","TIME_SYSTEM":"UTC","RCS_SIZE":"LARGE","ARG_OF_PERICENTER":"54.3199","CLASSIFICATION_TYPE":"U","COUNTRY_CODE":"US","MEAN_MOTION_DDOT":"0.0000000000000","ECCENTRICITY":"0.00017490","EPHEMERIS_TYPE":"0","SITE":"AFETR","SEMIMAJOR_AXIS":"6925.343","ELEMENT_SET_NO":"999","MEAN_MOTION_DOT":"0.00002029","REV_AT_EPOCH":"11361","APOAPSIS":"548.419","MEAN_ELEMENT_THEORY":"SGP4","CENTER_NAME":"EARTH","TLE_LINE2":"2 45583  53.0540 267.7001 0001749  54.3199 305.7952 15.06401857113619","RA_OF_ASC_NODE":"267.7001"},{"BSTAR":"0.00016249000000","OBJECT_ID":"2020-025BF","TLE_LINE1":"1 45584U 20025BF  22123.83150132  .00002139  00000-0  16249-3 0  9998","MEAN_MOTION":"15.06395396","PERIOD":"95.592","REF_FRAME":"TEME","EPOCH":"2022-05-03T19:57:21.714048","MEAN_ANOMALY":"289.3646","DECAY_DATE":null,"FILE":"3427573","INCLINATION":"53.0563","OBJECT_TYPE":"PAYLOAD","LAUNCH_DATE":"2020-04-22","PERIAPSIS":"546.169","NORAD_CAT_ID":"45584","GP_ID":"202631877","OBJECT_NAME":"STARLINK-1343","TIME_SYSTEM":"UTC","RCS_SIZE":"LARGE","ARG_OF_PERICENTER":"70.7508","ECCENTRICITY":"0.00015290","EPHEMERIS_TYPE":"0","SITE":"AFETR","CLASSIFICATION_TYPE":"U","MEAN_MOTION_DDOT":"0.0000000000000","COUNTRY_CODE":"US","ELEMENT_SET_NO":"999","MEAN_MOTION_DOT":"0.00002139","SEMIMAJOR_AXIS":"6925.363","APOAPSIS":"548.287","MEAN_ELEMENT_THEORY":"SGP4","TLE_LINE2":"2 45584  53.0563 267.7627 0001529  70.7508 289.3646 15.06395396113618","CENTER_NAME":"EARTH","RA_OF_ASC_NODE":"267.7627","REV_AT_EPOCH":"11361"},{"MEAN_MOTION":"15.06394676","PERIOD":"95.592","OBJECT_ID":"2020-025BH","BSTAR":"0.00020742000000","TLE_LINE1":"1 45586U 20025BH  22123.78726963  .00002809  00000-0  20742-3 0  9992","DECAY_DATE":null,"FILE":"3427218","INCLINATION":"53.0562","OBJECT_TYPE":"PAYLOAD","LAUNCH_DATE":"2020-04-22","PERIAPSIS":"546.219","OBJECT_NAME":"STARLINK-1347","GP_ID":"202604312","NORAD_CAT_ID":"45586","EPOCH":"2022-05-03T18:53:40.096032","REF_FRAME":"TEME","MEAN_ANOMALY":"303.7052","ECCENTRICITY":"0.00014590","SITE":"AFETR","EPHEMERIS_TYPE":"0","CLASSIFICATION_TYPE":"U","COUNTRY_CODE":"US","MEAN_MOTION_DDOT":"0.0000000000000","TIME_SYSTEM":"UTC","RCS_SIZE":"LARGE","ARG_OF_PERICENTER":"56.4076","APOAPSIS":"548.240","MEAN_ELEMENT_THEORY":"SGP4","TLE_LINE2":"2 45586  53.0562 267.9672 0001459  56.4076 303.7052 15.06394676112996","CENTER_NAME":"EARTH","RA_OF_ASC_NODE":"267.9672","REV_AT_EPOCH":"11299","ELEMENT_SET_NO":"999","MEAN_MOTION_DOT":"0.00002809","SEMIMAJOR_AXIS":"6925.365"},{"SITE":"AFETR","EPHEMERIS_TYPE":"0","ECCENTRICITY":"0.00015280","COUNTRY_CODE":"US","MEAN_MOTION_DDOT":"0.0000000000000","CLASSIFICATION_TYPE":"U","ARG_OF_PERICENTER":"60.7143","TIME_SYSTEM":"UTC","RCS_SIZE":"LARGE","CENTER_NAME":"EARTH","TLE_LINE2":"2 45587  53.0557 267.7912 0001528  60.7143 299.3998 15.06397017113617","RA_OF_ASC_NODE":"267.7912","APOAPSIS":"548.281","MEAN_ELEMENT_THEORY":"SGP4","REV_AT_EPOCH":"11361","ELEMENT_SET_NO":"999","MEAN_MOTION_DOT":"0.00001094","SEMIMAJOR_AXIS":"6925.358","PERIOD":"95.592","MEAN_MOTION":"15.06397017","BSTAR":"0.00009232600000","OBJECT_ID":"2020-025BJ","TLE_LINE1":"1 45587U 20025BJ  22123.82412020  .00001094  00000-0  92326-4 0  9997","FILE":"3427573","INCLINATION":"53.0557","OBJECT_TYPE":"PAYLOAD","DECAY_DATE":null,"LAUNCH_DATE":"2020-04-22","PERIAPSIS":"546.165","NORAD_CAT_ID":"45587","GP_ID":"202632379","OBJECT_NAME":"STARLINK-1349","MEAN_ANOMALY":"299.3998","REF_FRAME":"TEME","EPOCH":"2022-05-03T19:46:43.985280"},{"REF_FRAME":"TEME","MEAN_ANOMALY":"277.8102","EPOCH":"2022-05-03T17:39:21.341088","OBJECT_TYPE":"PAYLOAD","FILE":"3427573","INCLINATION":"53.0555","DECAY_DATE":null,"OBJECT_NAME":"STARLINK-1360","GP_ID":"202632630","NORAD_CAT_ID":"45588","PERIAPSIS":"546.343","LAUNCH_DATE":"2020-04-22","BSTAR":"-0.00002220800000","OBJECT_ID":"2020-025BK","TLE_LINE1":"1 45588U 20025BK  22123.73566367 -.00000612  00000-0 -22208-4 0  9991","PERIOD":"95.593","MEAN_MOTION":"15.06394145","ELEMENT_SET_NO":"999","MEAN_MOTION_DOT":"-0.00000612","SEMIMAJOR_AXIS":"6925.367","RA_OF_ASC_NODE":"268.2032","TLE_LINE2":"2 45588  53.0555 268.2032 0001283  82.3033 277.8102 15.06394145113595","CENTER_NAME":"EARTH","APOAPSIS":"548.120","MEAN_ELEMENT_THEORY":"SGP4","REV_AT_EPOCH":"11359","ARG_OF_PERICENTER":"82.3033","RCS_SIZE":"LARGE","TIME_SYSTEM":"UTC","SITE":"AFETR","EPHEMERIS_TYPE":"0","ECCENTRICITY":"0.00012830","MEAN_MOTION_DDOT":"0.0000000000000","COUNTRY_CODE":"US","CLASSIFICATION_TYPE":"U"},{"ECCENTRICITY":"0.00017890","SITE":"AFETR","EPHEMERIS_TYPE":"0","CLASSIFICATION_TYPE":"U","MEAN_MOTION_DDOT":"0.0000000000000","COUNTRY_CODE":"US","RCS_SIZE":"LARGE","TIME_SYSTEM":"UTC","ARG_OF_PERICENTER":"59.8720","APOAPSIS":"548.462","MEAN_ELEMENT_THEORY":"SGP4","RA_OF_ASC_NODE":"267.9113","CENTER_NAME":"EARTH","TLE_LINE2":"2 45589  53.0552 267.9113 0001789  59.8720 300.2446 15.06397036113002","REV_AT_EPOCH":"11300","ELEMENT_SET_NO":"999","MEAN_MOTION_DOT":"0.00001212","SEMIMAJOR_AXIS":"6925.358","MEAN_MOTION":"15.06397036","PERIOD":"95.592","OBJECT_ID":"2020-025BL","BSTAR":"0.00010027000000","TLE_LINE1":"1 45589U 20025BL  22123.79833001  .00001212  00000-0  10027-3 0  9990","DECAY_DATE":null,"OBJECT_TYPE":"PAYLOAD","FILE":"3427221","INCLINATION":"53.0552","NORAD_CAT_ID":"45589","GP_ID":"202604323","OBJECT_NAME":"STARLINK-1364","PERIAPSIS":"545.984","LAUNCH_DATE":"2020-04-22","REF_FRAME":"TEME","EPOCH":"2022-05-03T19:09:35.712864","MEAN_ANOMALY":"300.2446"},{"ELEMENT_SET_NO":"999","MEAN_MOTION_DOT":"0.00002669","SEMIMAJOR_AXIS":"6925.349","APOAPSIS":"548.416","MEAN_ELEMENT_THEORY":"SGP4","RA_OF_ASC_NODE":"298.1458","CENTER_NAME":"EARTH","TLE_LINE2":"2 45590  53.0547 298.1458 0001736  71.8329 288.2849 15.06399904113195","REV_AT_EPOCH":"11319","RCS_SIZE":"LARGE","TIME_SYSTEM":"UTC","ARG_OF_PERICENTER":"71.8329","ECCENTRICITY":"0.00017360","EPHEMERIS_TYPE":"0","SITE":"AFETR","CLASSIFICATION_TYPE":"U","COUNTRY_CODE":"US","MEAN_MOTION_DDOT":"0.0000000000000","MEAN_ANOMALY":"288.2849","EPOCH":"2022-05-03T17:56:36.008736","REF_FRAME":"TEME","DECAY_DATE":null,"OBJECT_TYPE":"PAYLOAD","FILE":"3427573","INCLINATION":"53.0547","NORAD_CAT_ID":"45590","GP_ID":"202632125","OBJECT_NAME":"STARLINK-1365","PERIAPSIS":"546.012","LAUNCH_DATE":"2020-04-22","BSTAR":"0.00019798000000","OBJECT_ID":"2020-025BM","TLE_LINE1":"1 45590U 20025BM  22123.74763899  .00002669  00000-0  19798-3 0  9995","MEAN_MOTION":"15.06399904","PERIOD":"95.592"},{"LAUNCH_DATE":"2020-06-04","PERIAPSIS":"546.103","GP_ID":"202631383","NORAD_CAT_ID":"45658","OBJECT_NAME":"STARLINK-1441","DECAY_DATE":null,"INCLINATION":"53.0551","FILE":"3427573","OBJECT_TYPE":"PAYLOAD","REF_FRAME":"TEME","MEAN_ANOMALY":"287.6928","EPOCH":"2022-05-03T15:43:54.368832","MEAN_MOTION":"15.06398941","PERIOD":"95.592","TLE_LINE1":"1 45658U 20035B   22123.65549038  .00002380  00000-0  17860-3 0  9996","OBJECT_ID":"2020-035B","BSTAR":"0.00017860000000","REV_AT_EPOCH":"10681","APOAPSIS":"548.330","MEAN_ELEMENT_THEORY":"SGP4","CENTER_NAME":"EARTH","TLE_LINE2":"2 45658  53.0551 258.5458 0001608  72.4237 287.6928 15.06398941106810","RA_OF_ASC_NODE":"258.5458","SEMIMAJOR_AXIS":"6925.352","MEAN_MOTION_DOT":"0.00002380","ELEMENT_SET_NO":"999","CLASSIFICATION_TYPE":"U","MEAN_MOTION_DDOT":"0.0000000000000","COUNTRY_CODE":"US","ECCENTRICITY":"0.00016080","SITE":"AFETR","EPHEMERIS_TYPE":"0","TIME_SYSTEM":"UTC","RCS_SIZE":"LARGE","ARG_OF_PERICENTER":"72.4237"},{"APOAPSIS":"548.409","MEAN_ELEMENT_THEORY":"SGP4","RA_OF_ASC_NODE":"257.9527","CENTER_NAME":"EARTH","TLE_LINE2":"2 45659  53.0551 257.9527 0001719  68.2765 291.8407 15.06398239106823","REV_AT_EPOCH":"10682","MEAN_MOTION_DOT":"0.00003079","ELEMENT_SET_NO":"999","SEMIMAJOR_AXIS":"6925.354","ECCENTRICITY":"0.00017190","SITE":"AFETR","EPHEMERIS_TYPE":"0","CLASSIFICATION_TYPE":"U","COUNTRY_CODE":"US","MEAN_MOTION_DDOT":"0.0000000000000","RCS_SIZE":"LARGE","TIME_SYSTEM":"UTC","ARG_OF_PERICENTER":"68.2765","DECAY_DATE":null,"OBJECT_TYPE":"PAYLOAD","FILE":"3427573","INCLINATION":"53.0551","NORAD_CAT_ID":"45659","GP_ID":"202632130","OBJECT_NAME":"STARLINK-1442","LAUNCH_DATE":"2020-06-04","PERIAPSIS":"546.028","MEAN_ANOMALY":"291.8407","REF_FRAME":"TEME","EPOCH":"2022-05-03T18:58:56.125632","MEAN_MOTION":"15.06398239","PERIOD":"95.592","OBJECT_ID":"2020-035C","BSTAR":"0.00022554000000","TLE_LINE1":"1 45659U 20035C   22123.79092738  .00003079  00000-0  22554-3 0  9994"}];
